{"fetched_at":"2026-07-10T07:58:39.953Z","source":"https://celestrak.org/NORAD/elements/gp.php?GROUP=kuiper&FORMAT=JSON","constellation":"kuiper","records":[{"OBJECT_NAME":"KUIPER-00062","OBJECT_ID":"2025-134Y","EPOCH":"2026-07-08T23:37:05.471904","CLASSIFICATION_TYPE":"U","MEAN_MOTION":14.79965082,"ECCENTRICITY":0.00007399,"INCLINATION":51.8963,"RA_OF_ASC_NODE":54.2142,"ARG_OF_PERICENTER":128.5827,"MEAN_ANOMALY":231.5202,"EPHEMERIS_TYPE":0,"NORAD_CAT_ID":64522,"ELEMENT_SET_NO":999,"REV_AT_EPOCH":5807,"BSTAR":0.001369328,"MEAN_MOTION_DOT":0.00010241,"MEAN_MOTION_DDOT":0},{"OBJECT_NAME":"KUIPER-00063","OBJECT_ID":"2025-134Z","EPOCH":"2026-07-08T20:11:00.525120","CLASSIFICATION_TYPE":"U","MEAN_MOTION":14.7992523,"ECCENTRICITY":0.00007729,"INCLINATION":51.9024,"RA_OF_ASC_NODE":62.3988,"ARG_OF_PERICENTER":106.5424,"MEAN_ANOMALY":253.5623,"EPHEMERIS_TYPE":0,"NORAD_CAT_ID":64523,"ELEMENT_SET_NO":999,"REV_AT_EPOCH":5794,"BSTAR":0.00037214207,"MEAN_MOTION_DOT":0.00002616,"MEAN_MOTION_DDOT":0},{"OBJECT_NAME":"KUIPER-00064","OBJECT_ID":"2025-134AA","EPOCH":"2026-07-09T01:06:36.111456","CLASSIFICATION_TYPE":"U","MEAN_MOTION":14.79930421,"ECCENTRICITY":0.00007233,"INCLINATION":51.9019,"RA_OF_ASC_NODE":58.9156,"ARG_OF_PERICENTER":111.3501,"MEAN_ANOMALY":248.7539,"EPHEMERIS_TYPE":0,"NORAD_CAT_ID":64524,"ELEMENT_SET_NO":999,"REV_AT_EPOCH":5801,"BSTAR":0.00030714668,"MEAN_MOTION_DOT":0.00002121,"MEAN_MOTION_DDOT":0},{"OBJECT_NAME":"KUIPER-00065","OBJECT_ID":"2025-134AB","EPOCH":"2026-07-08T21:44:22.994016","CLASSIFICATION_TYPE":"U","MEAN_MOTION":14.79926571,"ECCENTRICITY":0.00007681,"INCLINATION":51.9026,"RA_OF_ASC_NODE":64.7063,"ARG_OF_PERICENTER":105.1792,"MEAN_ANOMALY":254.9255,"EPHEMERIS_TYPE":0,"NORAD_CAT_ID":64525,"ELEMENT_SET_NO":999,"REV_AT_EPOCH":5790,"BSTAR":0.0003144411,"MEAN_MOTION_DOT":0.00002176,"MEAN_MOTION_DDOT":0},{"OBJECT_NAME":"KUIPER-00066","OBJECT_ID":"2025-134AC","EPOCH":"2026-07-09T17:59:42.453888","CLASSIFICATION_TYPE":"U","MEAN_MOTION":14.79932029,"ECCENTRICITY":0.0000597,"INCLINATION":51.9028,"RA_OF_ASC_NODE":358.2515,"ARG_OF_PERICENTER":107.9356,"MEAN_ANOMALY":252.1672,"EPHEMERIS_TYPE":0,"NORAD_CAT_ID":64526,"ELEMENT_SET_NO":999,"REV_AT_EPOCH":5892,"BSTAR":0.00032974,"MEAN_MOTION_DOT":0.00002293,"MEAN_MOTION_DDOT":0},{"OBJECT_NAME":"KUIPER-00069","OBJECT_ID":"2025-151A","EPOCH":"2026-07-09T03:11:13.257312","CLASSIFICATION_TYPE":"U","MEAN_MOTION":14.7992727,"ECCENTRICITY":0.00007186,"INCLINATION":51.9018,"RA_OF_ASC_NODE":103.6217,"ARG_OF_PERICENTER":99.2165,"MEAN_ANOMALY":260.8879,"EPHEMERIS_TYPE":0,"NORAD_CAT_ID":64816,"ELEMENT_SET_NO":999,"REV_AT_EPOCH":5474,"BSTAR":0.00039336722,"MEAN_MOTION_DOT":0.00002778,"MEAN_MOTION_DDOT":0},{"OBJECT_NAME":"KUIPER-00070","OBJECT_ID":"2025-151B","EPOCH":"2026-07-09T04:58:14.451744","CLASSIFICATION_TYPE":"U","MEAN_MOTION":14.79925553,"ECCENTRICITY":0.00009021,"INCLINATION":51.8998,"RA_OF_ASC_NODE":128.2047,"ARG_OF_PERICENTER":84.1197,"MEAN_ANOMALY":275.9869,"EPHEMERIS_TYPE":0,"NORAD_CAT_ID":64817,"ELEMENT_SET_NO":999,"REV_AT_EPOCH":5441,"BSTAR":0.00032878009,"MEAN_MOTION_DOT":0.00002286,"MEAN_MOTION_DDOT":0},{"OBJECT_NAME":"KUIPER-00071","OBJECT_ID":"2025-151C","EPOCH":"2026-07-08T01:28:54.531264","CLASSIFICATION_TYPE":"U","MEAN_MOTION":14.79922373,"ECCENTRICITY":0.00007876,"INCLINATION":51.9003,"RA_OF_ASC_NODE":130.8071,"ARG_OF_PERICENTER":90.8352,"MEAN_ANOMALY":269.27,"EPHEMERIS_TYPE":0,"NORAD_CAT_ID":64818,"ELEMENT_SET_NO":999,"REV_AT_EPOCH":5309,"BSTAR":0.00028719955,"MEAN_MOTION_DOT":0.00001968,"MEAN_MOTION_DDOT":0},{"OBJECT_NAME":"KUIPER-00072","OBJECT_ID":"2025-151D","EPOCH":"2026-07-08T22:15:34.251264","CLASSIFICATION_TYPE":"U","MEAN_MOTION":14.79910672,"ECCENTRICITY":0.00007443,"INCLINATION":51.8958,"RA_OF_ASC_NODE":106.9263,"ARG_OF_PERICENTER":82.5315,"MEAN_ANOMALY":277.5732,"EPHEMERIS_TYPE":0,"NORAD_CAT_ID":64819,"ELEMENT_SET_NO":999,"REV_AT_EPOCH":5350,"BSTAR":0.00030189752,"MEAN_MOTION_DOT":0.0000208,"MEAN_MOTION_DDOT":0},{"OBJECT_NAME":"KUIPER-00073","OBJECT_ID":"2025-151E","EPOCH":"2026-07-09T05:50:43.182240","CLASSIFICATION_TYPE":"U","MEAN_MOTION":14.79933605,"ECCENTRICITY":0.00008936,"INCLINATION":51.8993,"RA_OF_ASC_NODE":125.5657,"ARG_OF_PERICENTER":86.9578,"MEAN_ANOMALY":273.1486,"EPHEMERIS_TYPE":0,"NORAD_CAT_ID":64820,"ELEMENT_SET_NO":999,"REV_AT_EPOCH":5445,"BSTAR":0.00032921267,"MEAN_MOTION_DOT":0.00002289,"MEAN_MOTION_DDOT":0},{"OBJECT_NAME":"KUIPER-00074","OBJECT_ID":"2025-151F","EPOCH":"2026-07-09T20:00:01.999008","CLASSIFICATION_TYPE":"U","MEAN_MOTION":15.98566759,"ECCENTRICITY":0.0002456,"INCLINATION":51.8771,"RA_OF_ASC_NODE":26.1899,"ARG_OF_PERICENTER":242.2152,"MEAN_ANOMALY":302.2748,"EPHEMERIS_TYPE":0,"NORAD_CAT_ID":64821,"ELEMENT_SET_NO":999,"REV_AT_EPOCH":572,"BSTAR":0.00033213,"MEAN_MOTION_DOT":0.00157903,"MEAN_MOTION_DDOT":0.000021416},{"OBJECT_NAME":"KUIPER-00075","OBJECT_ID":"2025-151G","EPOCH":"2026-07-09T16:45:38.822400","CLASSIFICATION_TYPE":"U","MEAN_MOTION":15.45326903,"ECCENTRICITY":0.0003528,"INCLINATION":51.8673,"RA_OF_ASC_NODE":346.3096,"ARG_OF_PERICENTER":346.9728,"MEAN_ANOMALY":13.117,"EPHEMERIS_TYPE":0,"NORAD_CAT_ID":64822,"ELEMENT_SET_NO":999,"REV_AT_EPOCH":5524,"BSTAR":0.00068758,"MEAN_MOTION_DOT":0.00033058,"MEAN_MOTION_DDOT":0},{"OBJECT_NAME":"KUIPER-00076","OBJECT_ID":"2025-151H","EPOCH":"2026-07-09T04:29:02.160384","CLASSIFICATION_TYPE":"U","MEAN_MOTION":14.79923338,"ECCENTRICITY":0.00007475,"INCLINATION":51.8983,"RA_OF_ASC_NODE":115.8373,"ARG_OF_PERICENTER":94.7594,"MEAN_ANOMALY":265.3453,"EPHEMERIS_TYPE":0,"NORAD_CAT_ID":64823,"ELEMENT_SET_NO":999,"REV_AT_EPOCH":5340,"BSTAR":0.00031196564,"MEAN_MOTION_DOT":0.00002157,"MEAN_MOTION_DDOT":0},{"OBJECT_NAME":"KUIPER-00077","OBJECT_ID":"2025-151J","EPOCH":"2026-07-09T04:21:16.291584","CLASSIFICATION_TYPE":"U","MEAN_MOTION":14.79924611,"ECCENTRICITY":0.00004562,"INCLINATION":51.9004,"RA_OF_ASC_NODE":120.8781,"ARG_OF_PERICENTER":132.7123,"MEAN_ANOMALY":227.3878,"EPHEMERIS_TYPE":0,"NORAD_CAT_ID":64824,"ELEMENT_SET_NO":999,"REV_AT_EPOCH":5333,"BSTAR":0.00017485706,"MEAN_MOTION_DOT":0.00001112,"MEAN_MOTION_DDOT":0},{"OBJECT_NAME":"KUIPER-00078","OBJECT_ID":"2025-151K","EPOCH":"2026-07-09T05:13:44.676480","CLASSIFICATION_TYPE":"U","MEAN_MOTION":14.79938037,"ECCENTRICITY":0.00008075,"INCLINATION":51.8995,"RA_OF_ASC_NODE":118.1947,"ARG_OF_PERICENTER":97.2068,"MEAN_ANOMALY":262.8986,"EPHEMERIS_TYPE":0,"NORAD_CAT_ID":64825,"ELEMENT_SET_NO":999,"REV_AT_EPOCH":5337,"BSTAR":0.00031502712,"MEAN_MOTION_DOT":0.00002181,"MEAN_MOTION_DDOT":0},{"OBJECT_NAME":"KUIPER-00079","OBJECT_ID":"2025-151L","EPOCH":"2026-07-07T05:17:19.123872","CLASSIFICATION_TYPE":"U","MEAN_MOTION":14.79921572,"ECCENTRICITY":0.00013478,"INCLINATION":51.8964,"RA_OF_ASC_NODE":131.9874,"ARG_OF_PERICENTER":85.1153,"MEAN_ANOMALY":274.9963,"EPHEMERIS_TYPE":0,"NORAD_CAT_ID":64826,"ELEMENT_SET_NO":999,"REV_AT_EPOCH":5420,"BSTAR":-0.000082088018,"MEAN_MOTION_DOT":-0.00000847,"MEAN_MOTION_DDOT":0}]}
