KUIPER-00062            
1 64522U 25134Y   26189.98409111  .00010241  00000+0  13693-2 0  9994
2 64522  51.8963  54.2142 0000739 128.5827 231.5202 14.79965082 58079
KUIPER-00063            
1 64523U 25134Z   26189.84097830  .00002616  00000+0  37214-3 0  9994
2 64523  51.9024  62.3988 0000772 106.5424 253.5623 14.79925230 57940
KUIPER-00064            
1 64524U 25134AA  26190.04625129  .00002121  00000+0  30715-3 0  9997
2 64524  51.9019  58.9156 0000723 111.3501 248.7539 14.79930421 58018
KUIPER-00065            
1 64525U 25134AB  26189.90582169  .00002176  00000+0  31444-3 0  9997
2 64525  51.9026  64.7063 0000768 105.1792 254.9255 14.79926571 57903
KUIPER-00066            
1 64526U 25134AC  26190.74979692  .00002293  00000+0  32974-3 0  9992
2 64526  51.9028 358.2515 0000597 107.9356 252.1672 14.79932029 58926
KUIPER-00069            
1 64816U 25151A   26190.13279233  .00002778  00000+0  39337-3 0  9998
2 64816  51.9018 103.6217 0000718  99.2165 260.8879 14.79927270 54747
KUIPER-00070            
1 64817U 25151B   26190.20711171  .00002286  00000+0  32878-3 0  9996
2 64817  51.8998 128.2047 0000902  84.1197 275.9869 14.79925553 54413
KUIPER-00071            
1 64818U 25151C   26189.06174226  .00001968  00000+0  28720-3 0  9990
2 64818  51.9003 130.8071 0000787  90.8352 269.2700 14.79922373 53096
KUIPER-00072            
1 64819U 25151D   26189.92747976  .00002080  00000+0  30190-3 0  9994
2 64819  51.8958 106.9263 0000744  82.5315 277.5732 14.79910672 53504
KUIPER-00073            
1 64820U 25151E   26190.24355535  .00002289  00000+0  32921-3 0  9994
2 64820  51.8993 125.5657 0000893  86.9578 273.1486 14.79933605 54457
KUIPER-00074            
1 64821U 25151F   26190.83335647  .00157903  21416-4  33213-3 0  9990
2 64821  51.8771  26.1899 0002456 242.2152 302.2748 15.98566759  5723
KUIPER-00075            
1 64822U 25151G   26190.69836600  .00033058  00000+0  68758-3 0  9997
2 64822  51.8673 346.3096 0003528 346.9728  13.1170 15.45326903 55249
KUIPER-00076            
1 64823U 25151H   26190.18683056  .00002157  00000+0  31197-3 0  9990
2 64823  51.8983 115.8373 0000747  94.7594 265.3453 14.79923338 53402
KUIPER-00077            
1 64824U 25151J   26190.18143856  .00001112  00000+0  17486-3 0  9995
2 64824  51.9004 120.8781 0000456 132.7123 227.3878 14.79924611 53331
KUIPER-00078            
1 64825U 25151K   26190.21787820  .00002181  00000+0  31503-3 0  9998
2 64825  51.8995 118.1947 0000807  97.2068 262.8986 14.79938037 53372
KUIPER-00079            
1 64826U 25151L   26188.22036023 -.00000847  00000+0 -82088-4 0  9993
2 64826  51.8964 131.9874 0001347  85.1153 274.9963 14.79921572 54200
